{"type": "FeatureCollection", "features": [ {"type": "Feature", "properties": {"norad_id": 39574, "name": "GPM-CORE", "group": "resource", "lat": -19.815410324841718, "lon": -145.55642960751496, "alt_km": 431.6769833487524, "timestamp": "2025-12-09T07:41:32.859887+00:00", "meta": {"OBJECT_NAME": "GPM-CORE", "OBJECT_ID": "2014-009C", "EPOCH": "2025-12-08T22:28:07.444992", "MEAN_MOTION": 15.45424114, "ECCENTRICITY": 0.00105128, "INCLINATION": 64.9737, "RA_OF_ASC_NODE": 225.4232, "ARG_OF_PERICENTER": 270.0055, "MEAN_ANOMALY": 89.9881, "EPHEMERIS_TYPE": 0, "CLASSIFICATION_TYPE": "U", "NORAD_CAT_ID": 39574, "ELEMENT_SET_NO": 999, "REV_AT_EPOCH": 66842, "BSTAR": 0.00036360366, "MEAN_MOTION_DOT": 0.00017314, "MEAN_MOTION_DDOT": 0}, "tle": {"line1": "1 39574U 14009C   25342.93619728  .00017314  00000+0  36360-3 0  9999", "line2": "2 39574  64.9737 225.4232 0010512 270.0055  89.9881 15.45424114668424"}}, "geometry": {"type": "Point", "coordinates": [-145.55642960751496, -19.815410324841718]}}, {"type": "Feature", "properties": {"norad_id": 39634, "name": "SENTINEL-1A", "group": "resource", "lat": 6.762995853917206, "lon": 169.58934036985076, "alt_km": 697.8043976981617, "timestamp": "2025-12-09T07:41:32.859897+00:00", "meta": {"OBJECT_NAME": "SENTINEL-1A", "OBJECT_ID": "2014-016A", "EPOCH": "2025-12-09T00:19:09.140736", "MEAN_MOTION": 14.59200018, "ECCENTRICITY": 0.00012436, "INCLINATION": 98.1799, "RA_OF_ASC_NODE": 348.3093, "ARG_OF_PERICENTER": 84.9052, "MEAN_ANOMALY": 275.229, "EPHEMERIS_TYPE": 0, "CLASSIFICATION_TYPE": "U", "NORAD_CAT_ID": 39634, "ELEMENT_SET_NO": 999, "REV_AT_EPOCH": 62228, "BSTAR": 4.7686136e-05, "MEAN_MOTION_DOT": 1.79e-06, "MEAN_MOTION_DDOT": 0}, "tle": {"line1": "1 39634U 14016A   25343.01330024  .00000179  00000+0  47686-4 0  9998", "line2": "2 39634  98.1799 348.3093 0001243  84.9052 275.2290 14.59200018622285"}}, "geometry": {"type": "Point", "coordinates": [169.58934036985076, 6.762995853917206]}}, {"type": "Feature", "properties": {"norad_id": 39731, "name": "KAZEOSAT 1", "group": "resource", "lat": -1.9353086038094216, "lon": 55.58867773276482, "alt_km": 754.9933847863049, "timestamp": "2025-12-09T07:41:32.859908+00:00", "meta": {"OBJECT_NAME": "KAZEOSAT 1", "OBJECT_ID": "2014-024A", "EPOCH": "2025-12-08T23:22:30.831744", "MEAN_MOTION": 14.42058497, "ECCENTRICITY": 0.00010874, "INCLINATION": 98.3437, "RA_OF_ASC_NODE": 54.9658, "ARG_OF_PERICENTER": 95.3868, "MEAN_ANOMALY": 264.7446, "EPHEMERIS_TYPE": 0, "CLASSIFICATION_TYPE": "U", "NORAD_CAT_ID": 39731, "ELEMENT_SET_NO": 999, "REV_AT_EPOCH": 61114, "BSTAR": 7.4976734e-05, "MEAN_MOTION_DOT": 2.03e-06, "MEAN_MOTION_DDOT": 0}, "tle": {"line1": "1 39731U 14024A   25342.97396796  .00000203  00000+0  74977-4 0  9998", "line2": "2 39731  98.3437  54.9658 0001087  95.3868 264.7446 14.42058497611141"}}, "geometry": {"type": "Point", "coordinates": [55.58867773276482, -1.9353086038094216]}}, {"type": "Feature", "properties": {"norad_id": 39766, "name": "ALOS-2", "group": "resource", "lat": 36.84526424233416, "lon": -95.7947052599624, "alt_km": 627.6980185884604, "timestamp": "2025-12-09T07:41:32.859918+00:00", "meta": {"OBJECT_NAME": "ALOS-2", "OBJECT_ID": "2014-029A", "EPOCH": "2025-12-08T22:56:02.113728", "MEAN_MOTION": 14.79456223, "ECCENTRICITY": 0.00014358, "INCLINATION": 97.9229, "RA_OF_ASC_NODE": 77.8557, "ARG_OF_PERICENTER": 101.425, "MEAN_ANOMALY": 258.7123, "EPHEMERIS_TYPE": 0, "CLASSIFICATION_TYPE": "U", "NORAD_CAT_ID": 39766, "ELEMENT_SET_NO": 999, "REV_AT_EPOCH": 62345, "BSTAR": 0.00036724716, "MEAN_MOTION_DOT": 2.691e-05, "MEAN_MOTION_DDOT": 0}, "tle": {"line1": "1 39766U 14029A   25342.95558002  .00002691  00000+0  36725-3 0  9990", "line2": "2 39766  97.9229  77.8557 0001435 101.4250 258.7123 14.79456223623457"}}, "geometry": {"type": "Point", "coordinates": [-95.7947052599624, 36.84526424233416]}}, {"type": "Feature", "properties": {"norad_id": 40010, "name": "KAZEOSAT 2", "group": "resource", "lat": -17.054577834225476, "lon": -169.85706689618908, "alt_km": 620.9024883862539, "timestamp": "2025-12-09T07:41:32.859929+00:00", "meta": {"OBJECT_NAME": "KAZEOSAT 2", "OBJECT_ID": "2014-033A", "EPOCH": "2025-12-08T22:04:04.474272", "MEAN_MOTION": 14.85157879, "ECCENTRICITY": 0.00074516, "INCLINATION": 97.5501, "RA_OF_ASC_NODE": 187.4309, "ARG_OF_PERICENTER": 220.999, "MEAN_ANOMALY": 139.0666, "EPHEMERIS_TYPE": 0, "CLASSIFICATION_TYPE": "U", "NORAD_CAT_ID": 40010, "ELEMENT_SET_NO": 999, "REV_AT_EPOCH": 62071, "BSTAR": 0.00016480341, "MEAN_MOTION_DOT": 1.361e-05, "MEAN_MOTION_DDOT": 0}, "tle": {"line1": "1 40010U 14033A   25342.91949623  .00001361  00000+0  16480-3 0  9997", "line2": "2 40010  97.5501 187.4309 0007451 220.9990 139.0666 14.85157879620716"}}, "geometry": {"type": "Point", "coordinates": [-169.85706689618908, -17.054577834225476]}}, {"type": "Feature", "properties": {"norad_id": 40011, "name": "HODOYOSHI-4", "group": "resource", "lat": 41.67440604805082, "lon": 165.6006807227421, "alt_km": 618.2398515507639, "timestamp": "2025-12-09T07:41:32.859939+00:00", "meta": {"OBJECT_NAME": "HODOYOSHI-4", "OBJECT_ID": "2014-033B", "EPOCH": "2025-12-08T23:25:49.647648", "MEAN_MOTION": 14.87461695, "ECCENTRICITY": 0.00228194, "INCLINATION": 97.5415, "RA_OF_ASC_NODE": 172.0461, "ARG_OF_PERICENTER": 213.4005, "MEAN_ANOMALY": 146.5774, "EPHEMERIS_TYPE": 0, "CLASSIFICATION_TYPE": "U", "NORAD_CAT_ID": 40011, "ELEMENT_SET_NO": 999, "REV_AT_EPOCH": 62052, "BSTAR": 0.0002977607, "MEAN_MOTION_DOT": 2.657e-05, "MEAN_MOTION_DDOT": 0}, "tle": {"line1": "1 40011U 14033B   25342.97626907  .00002657  00000+0  29776-3 0  9992", "line2": "2 40011  97.5415 172.0461 0022819 213.4005 146.5774 14.87461695620527"}}, "geometry": {"type": "Point", "coordinates": [165.6006807227421, 41.67440604805082]}}, {"type": "Feature", "properties": {"norad_id": 40013, "name": "DEIMOS-2", "group": "resource", "lat": 47.3725312196766, "lon": 47.58223838142485, "alt_km": 583.9971893823531, "timestamp": "2025-12-09T07:41:32.859950+00:00", "meta": {"OBJECT_NAME": "DEIMOS-2", "OBJECT_ID": "2014-033D", "EPOCH": "2025-12-08T23:03:38.030976", "MEAN_MOTION": 14.92951828, "ECCENTRICITY": 0.00010811, "INCLINATION": 97.6067, "RA_OF_ASC_NODE": 218.8862, "ARG_OF_PERICENTER": 91.7197, "MEAN_ANOMALY": 268.4146, "EPHEMERIS_TYPE": 0, "CLASSIFICATION_TYPE": "U", "NORAD_CAT_ID": 40013, "ELEMENT_SET_NO": 999, "REV_AT_EPOCH": 60933, "BSTAR": 0.00046091683, "MEAN_MOTION_DOT": 4.732e-05, "MEAN_MOTION_DDOT": 0}, "tle": {"line1": "1 40013U 14033D   25342.96085684  .00004732  00000+0  46092-3 0  9990", "line2": "2 40013  97.6067 218.8862 0001081  91.7197 268.4146 14.92951828609335"}}, "geometry": {"type": "Point", "coordinates": [47.58223838142485, 47.3725312196766]}}, {"type": "Feature", "properties": {"norad_id": 40015, "name": "HODOYOSHI-3", "group": "resource", "lat": 0.7041742787435997, "lon": 149.2100258865837, "alt_km": 621.4216458777373, "timestamp": "2025-12-09T07:41:32.859960+00:00", "meta": {"OBJECT_NAME": "HODOYOSHI-3", "OBJECT_ID": "2014-033F", "EPOCH": "2025-12-08T23:36:08.322624", "MEAN_MOTION": 14.84786185, "ECCENTRICITY": 0.0031812, "INCLINATION": 97.6199, "RA_OF_ASC_NODE": 148.982, "ARG_OF_PERICENTER": 260.8129, "MEAN_ANOMALY": 98.9487, "EPHEMERIS_TYPE": 0, "CLASSIFICATION_TYPE": "U", "NORAD_CAT_ID": 40015, "ELEMENT_SET_NO": 999, "REV_AT_EPOCH": 61939, "BSTAR": 0.0002829372, "MEAN_MOTION_DOT": 2.369e-05, "MEAN_MOTION_DDOT": 0}, "tle": {"line1": "1 40015U 14033F   25342.98342966  .00002369  00000+0  28294-3 0  9991", "line2": "2 40015  97.6199 148.9820 0031812 260.8129  98.9487 14.84786185619393"}}, "geometry": {"type": "Point", "coordinates": [149.2100258865837, 0.7041742787435997]}}, {"type": "Feature", "properties": {"norad_id": 40053, "name": "SPOT 7", "group": "resource", "lat": 18.58209815628058, "lon": 42.73355298259862, "alt_km": 690.732352316988, "timestamp": "2025-12-09T07:41:32.859970+00:00", "meta": {"OBJECT_NAME": "SPOT 7", "OBJECT_ID": "2014-034A", "EPOCH": "2025-12-08T23:23:12.427296", "MEAN_MOTION": 14.60726325, "ECCENTRICITY": 0.00015347, "INCLINATION": 98.0908, "RA_OF_ASC_NODE": 45.1366, "ARG_OF_PERICENTER": 89.1839, "MEAN_ANOMALY": 270.9538, "EPHEMERIS_TYPE": 0, "CLASSIFICATION_TYPE": "U", "NORAD_CAT_ID": 40053, "ELEMENT_SET_NO": 999, "REV_AT_EPOCH": 60936, "BSTAR": 0.00018819104, "MEAN_MOTION_DOT": 8.72e-06, "MEAN_MOTION_DDOT": 0}, "tle": {"line1": "1 40053U 14034A   25342.97444939  .00000872  00000+0  18819-3 0  9995", "line2": "2 40053  98.0908  45.1366 0001534  89.1839 270.9538 14.60726325609368"}}, "geometry": {"type": "Point", "coordinates": [42.73355298259862, 18.58209815628058]}}, {"type": "Feature", "properties": {"norad_id": 40072, "name": "SKYSAT-B", "group": "resource", "lat": -12.982046973784138, "lon": -71.2113472537071, "alt_km": 614.9286715406452, "timestamp": "2025-12-09T07:41:32.859981+00:00", "meta": {"OBJECT_NAME": "SKYSAT-B", "OBJECT_ID": "2014-037D", "EPOCH": "2025-12-08T18:50:03.591456", "MEAN_MOTION": 14.87305642, "ECCENTRICITY": 0.00058278, "INCLINATION": 98.3606, "RA_OF_ASC_NODE": 286.2818, "ARG_OF_PERICENTER": 162.0529, "MEAN_ANOMALY": 198.0892, "EPHEMERIS_TYPE": 0, "CLASSIFICATION_TYPE": "U", "NORAD_CAT_ID": 40072, "ELEMENT_SET_NO": 999, "REV_AT_EPOCH": 61765, "BSTAR": 0.00040028214, "MEAN_MOTION_DOT": 3.552e-05, "MEAN_MOTION_DDOT": 0}, "tle": {"line1": "1 40072U 14037D   25342.78476379  .00003552  00000+0  40028-3 0  9996", "line2": "2 40072  98.3606 286.2818 0005827 162.0529 198.0892 14.87305642617651"}}, "geometry": {"type": "Point", "coordinates": [-71.2113472537071, -12.982046973784138]}}]}